#aV2020  3 23  0  0  0.00000000     288 DD+AD WGS84 FIT  NGA
## 2098  86400.00000000   300.00000000 58931 0.0000000000000
+   32     1  2  3  4  5  6  7  8  9 10 11 12 13 14 15 16 17
+         18 19 20 21 22 23 24 25 26 27 28 29 30 31 32  0  0
+          0  0  0  0  0  0  0  0  0  0  0  0  0  0  0  0  0
+          0  0  0  0  0  0  0  0  0  0  0  0  0  0  0  0  0
+          0  0  0  0  0  0  0  0  0  0  0  0  0  0  0  0  0
++         2  2  2  2  2  2  2  2  2  2  2  2  2  2  2  2  2
++         2  2  2  2  2  2  2  2  2  2  2  2  2  2  2  0  0
++         0  0  0  0  0  0  0  0  0  0  0  0  0  0  0  0  0
++         0  0  0  0  0  0  0  0  0  0  0  0  0  0  0  0  0
++         0  0  0  0  0  0  0  0  0  0  0  0  0  0  0  0  0
%c cc cc ccc ccc cccc cccc cccc cccc ccccc ccccc ccccc ccccc
%c cc cc ccc ccc cccc cccc cccc cccc ccccc ccccc ccccc ccccc
%f  0.0000000  0.000000000  0.00000000000  0.000000000000000
%f  0.0000000  0.000000000  0.00000000000  0.000000000000000
%i    0    0    0    0      0      0      0      0         0
%i    0    0    0    0      0      0      0      0         0
/*      NGA, ST. LOUIS,MO.                                  
/*   EPHEMERIS COMPUTED FROM 2 DAYS OF DATA                 
/*   EPOCHA v5 SMOOTHER                                     
/*   G1762 IERS2010 SATAF SATAPC                            
*  2020  3 23 17 10  0.00000000
P  1   1285.721159 -15690.503392 -21545.780763   -335.465947                    
V  1  25699.041196  -7888.049581   7674.996981     -0.125639                    
P  2 -20926.115891  14667.415993   7739.044019   -426.982875                    
V  2  -9324.702952   1026.941490 -29692.404631     -0.066360                    
P  3  -9234.492567 -20812.009833 -13811.593319   -125.626642                    
V  3  14406.106545   9960.370066 -24643.160464     -0.101612                    
P  4   -636.567531 -24993.564505   8935.254418    -66.275447                    
V  4   5088.694378 -10464.473127 -28964.803476     -0.052293                    
P  5 -10929.537753  10850.623645  21512.085953     -9.605960                    
V  5 -21297.510379 -17646.582300  -1714.359428     -0.006326                    
P  6 -25567.156756   6593.241683  -3050.231642   -237.394972                    
V  6   3004.156608  -3350.047681 -31808.225298     -0.083111                    
P  7 -17178.854736  -8477.763782  18886.227546   -242.300580                    
V  7  21700.210439  -8381.901833  15749.867679     -0.085277                    
P  8   6305.992731 -25549.461956   2376.724894    -28.141781                    
V  8   2139.746369   3448.691197  31940.737494     -0.013380                    
P  9  -8952.250105 -18279.994221  17002.866652   -182.716995                    
V  9   5770.043150 -21024.842526 -19523.493409     -0.080519                    
P 10  22356.291307   9195.648845 -11182.276446   -286.880390                    
V 10   9319.815582  10980.568840  27224.819087     -0.124153                    
P 11   8643.138036 -22322.715799 -12310.562119   -325.754379                    
V 11  12721.181083  -8368.289796  24814.270822      0.107906                    
P 12   5952.752759  20899.991095 -15620.814922    137.446592                    
V 12 -14608.706751 -12702.162267 -22741.164546     -0.042708                    
P 13 -13144.093930  21444.032696   8278.813476     -3.554020                    
V 13   1025.571062 -10929.707924  29591.303219      0.029295                    
P 14  16080.797445  -9601.018002 -18420.048218    -24.401081                    
V 14  -4969.113978  23700.454865 -16575.320010      0.025180                    
P 15  -3369.581799  26086.944644   1281.442734   -242.973675                    
V 15  -3968.807635  -2390.869676  31215.545926      0.026163                    
P 16  11075.726748  -9706.300394  21895.522375   -138.314358                    
V 16  19635.384027  20322.446705   -476.320536     -0.043004                    
P 17 -14598.855946  -1194.517138 -21732.277578    236.913846                    
V 17   6879.878270 -27713.184715  -3085.772771      0.063297                    
P 18  10680.170311  12063.444762  21125.650245    129.447773                    
V 18 -25377.408064   8656.736376   7861.820683      0.146345                    
P 19 -16208.053793   7232.666111 -20054.812718   -181.848351                    
V 19   6437.247426 -23922.508809 -14040.974325      0.051221                    
P 20  22184.616993  14814.803953     37.987269    527.855687                    
V 20  -2065.181473   2839.947663  30991.647870     -0.000125                    
P 21  17708.567923   7332.185231  19065.639103    -23.866389                    
V 21 -20391.593335  10114.223594  15976.811152      0.051257                    
P 22  -1568.471559 -18550.088897 -18763.835944   -785.412880                    
V 22  20645.317479  13055.867556 -14337.207915      0.001349                    
P 23  -2846.748368 -24514.898856   9660.224151   -127.623207                    
V 23   5198.758211 -11177.970810 -28269.264474      0.027165                    
P 24  -2594.751480  17133.091444 -20233.164382    -10.724682                    
V 24 -24063.594884   8377.715115  10642.647723     -0.004216                    
P 25  16037.761698  20322.531738  -6779.124438     -7.500105                    
V 25  -7675.972652  -3733.122316 -30145.905333      0.020791                    
P 26  18754.286235  -2060.855539  18745.744314    173.322110                    
V 26  17490.290319  16270.639773 -15460.601938      0.075037                    
P 27  12255.405415 -19886.825341  12182.962092   -246.693317                    
V 27   -925.671452  15891.047709  26915.911416     -0.106884                    
P 28 -20897.550280 -10059.368913 -12226.578809    730.795124                    
V 28  -9792.178456 -13439.929611  26672.881878     -0.027289                    
P 29   5672.573046  20210.218934  16224.148319    -63.608537                    
V 29  -6713.601483  19551.459926 -21973.150525     -0.091984                    
P 30 -24376.599982   -891.358872  10786.773760   -182.047346                    
V 30  12210.114058  -6690.593501  26912.712251     -0.086586                    
P 31  25694.430684  -7642.806312   -473.958168    -31.311059                    
V 31    225.613069   2572.828849 -31383.914223     -0.024636                    
P 32  15443.344541    -93.629257 -21524.469706    243.093586                    
V 32  -4747.118425  27120.689339  -3653.231399      0.089343                    
EOF
